CS1                     
1 49261U 21088B   26068.75173904  .00015722  00000+0  51176-3 0  9998
2 49261  97.3882 132.1684 0014129  78.0335 282.2490 15.31848439245182
STARLINK-30431          
1 57852U 23141N   26068.82674254  .00000212  00000+0  19283-4 0  9999
2 57852  53.1592 283.1577 0000966 110.9615 249.1489 15.30189985140349
